[
    {
        "Name" : "Sat1",
        "Type" : "Sat",
        "OPS" : ["STARLINK-1145",
                "1 45066U 20006Y   23303.35992594  .00018150  00000+0  12341-2 0  9993",
                "2 45066  53.0531 173.2792 0001502  70.3825 289.7326 15.06404601207254"],
        "IP" : "127.0.0.1",
        "Port": 5655
    },
    {
        "Name" : "Sat2",
        "Type" : "Sat",
        "OPS" : ["STARLINK-1139",           
                "1 45065U 20006X   23303.35790640  .00041331  00000+0  20116-2 0  9996",
                "2 45065  53.0522 166.0322 0005229 156.5234 203.5999 15.17996743207360"],
        "IP" : "127.0.0.1",
        "Port": 5656
    },
    {
        "Name" : "Ground1",
        "Type" : "Ground",
        "OPS" : ["Ithaca",           
        "42.443962",
        "-76.501884"],
        "IP" : "127.0.0.1",
        "Port": 5657
    }
]